ONEWEB-0520             
1 54138U 22138AB  24153.54749231  .00000052  00000+0  98761-4 0  9998
2 54138  87.9144  93.3505 0002444  92.0722 268.0691 13.19723405 78470
ONEWEB-0521             
1 54139U 22138AC  24153.58066884  .00000057  00000+0  11060-3 0  9990
2 54139  87.9144  93.3371 0001819  82.0905 278.0434 13.19723622 78421
ONEWEB-0522             
1 54140U 22138AD  24153.33268799 -.00000344  00000+0 -89271-3 0  9994
2 54140  87.9142  93.3883 0002287  79.4188 280.7202 13.19725747 78436
ONEWEB-0523             
1 54141U 22138AE  24153.50790591 -.00000070  00000+0 -20324-3 0  9994
2 54141  87.9223  62.8034 0001770  51.2211 308.9080 13.20770999 80876
ONEWEB-0524             
1 54142U 22138AF  24153.49685730 -.00000051  00000+0 -15745-3 0  9991
2 54142  87.9223  62.8091 0002811  60.6717 299.4697 13.20769763 80877
ONEWEB-0525             
1 54143U 22138AG  24153.57909076  .00000015  00000+0  58860-5 0  9998
2 54143  87.9145  93.3478 0002271  89.5514 270.5879 13.19723927 78480
ONEWEB-0526             
1 54144U 22138AH  24153.53644159  .00000075  00000+0  15428-3 0  9990
2 54144  87.9143  93.3518 0002218  82.4464 277.6921 13.19723743 78450
ONEWEB-0529             
1 54145U 22138AJ  24153.53960077  .00000068  00000+0  13786-3 0  9998
2 54145  87.9151  93.3650 0002370  88.3617 271.7787 13.19723477 78472
